CCSDS_OMM_VERS = 2.0
CREATION_DATE  = 
ORIGINATOR     = 

OBJECT_NAME    = STARLINK-36429
OBJECT_ID      = 2026-003Y
CENTER_NAME    = EARTH
REF_FRAME      = TEME
TIME_SYSTEM    = UTC
MEAN_ELEMENT_THEORY = SGP/SGP4

EPOCH          = 2026-01-23T14:00:01.999872
MEAN_MOTION    = 15.75114521
ECCENTRICITY   = .00013088
INCLINATION    = 42.9992
RA_OF_ASC_NODE = 126.5685
ARG_OF_PERICENTER = 261.4910
MEAN_ANOMALY   = 1.2100

EPHEMERIS_TYPE = 0
CLASSIFICATION_TYPE = U
NORAD_CAT_ID   = 67356
ELEMENT_SET_NO = 999
REV_AT_EPOCH   = 341
BSTAR          = -.10064985E-2
MEAN_MOTION_DOT = -.152817E-2
MEAN_MOTION_DDOT = 0

CCSDS_OMM_VERS = 2.0
CREATION_DATE  = 
ORIGINATOR     = 

OBJECT_NAME    = STARLINK-36456
OBJECT_ID      = 2026-003Z
CENTER_NAME    = EARTH
REF_FRAME      = TEME
TIME_SYSTEM    = UTC
MEAN_ELEMENT_THEORY = SGP/SGP4

EPOCH          = 2026-01-23T14:00:01.999872
MEAN_MOTION    = 15.75093441
ECCENTRICITY   = .00014063
INCLINATION    = 42.9991
RA_OF_ASC_NODE = 126.5584
ARG_OF_PERICENTER = 273.0780
MEAN_ANOMALY   = 353.4573

EPHEMERIS_TYPE = 0
CLASSIFICATION_TYPE = U
NORAD_CAT_ID   = 67357
ELEMENT_SET_NO = 999
REV_AT_EPOCH   = 342
BSTAR          = -.63407151E-3
MEAN_MOTION_DOT = -.96993E-3
MEAN_MOTION_DDOT = 0

CCSDS_OMM_VERS = 2.0
CREATION_DATE  = 
ORIGINATOR     = 

OBJECT_NAME    = STARLINK-36466
OBJECT_ID      = 2026-003AA
CENTER_NAME    = EARTH
REF_FRAME      = TEME
TIME_SYSTEM    = UTC
MEAN_ELEMENT_THEORY = SGP/SGP4

EPOCH          = 2026-01-23T14:00:01.999872
MEAN_MOTION    = 15.74951001
ECCENTRICITY   = .00014015
INCLINATION    = 42.9994
RA_OF_ASC_NODE = 126.5528
ARG_OF_PERICENTER = 272.1424
MEAN_ANOMALY   = 356.3941

EPHEMERIS_TYPE = 0
CLASSIFICATION_TYPE = U
NORAD_CAT_ID   = 67358
ELEMENT_SET_NO = 999
REV_AT_EPOCH   = 342
BSTAR          = .12716912E-2
MEAN_MOTION_DOT = .19877E-2
MEAN_MOTION_DDOT = 0

CCSDS_OMM_VERS = 2.0
CREATION_DATE  = 
ORIGINATOR     = 

OBJECT_NAME    = STARLINK-36499
OBJECT_ID      = 2026-003AB
CENTER_NAME    = EARTH
REF_FRAME      = TEME
TIME_SYSTEM    = UTC
MEAN_ELEMENT_THEORY = SGP/SGP4

EPOCH          = 2026-01-23T14:00:01.999872
MEAN_MOTION    = 15.75095722
ECCENTRICITY   = .00015149
INCLINATION    = 42.9990
RA_OF_ASC_NODE = 126.5483
ARG_OF_PERICENTER = 264.3566
MEAN_ANOMALY   = 6.0166

EPHEMERIS_TYPE = 0
CLASSIFICATION_TYPE = U
NORAD_CAT_ID   = 67359
ELEMENT_SET_NO = 999
REV_AT_EPOCH   = 342
BSTAR          = -.77600045E-3
MEAN_MOTION_DOT = -.118314E-2
MEAN_MOTION_DDOT = 0

CCSDS_OMM_VERS = 2.0
CREATION_DATE  = 
ORIGINATOR     = 

OBJECT_NAME    = STARLINK-36469
OBJECT_ID      = 2026-003AC
CENTER_NAME    = EARTH
REF_FRAME      = TEME
TIME_SYSTEM    = UTC
MEAN_ELEMENT_THEORY = SGP/SGP4

EPOCH          = 2026-01-23T14:00:01.999872
MEAN_MOTION    = 15.75098548
ECCENTRICITY   = .00013773
INCLINATION    = 42.9990
RA_OF_ASC_NODE = 126.5439
ARG_OF_PERICENTER = 255.2111
MEAN_ANOMALY   = 17.0876

EPHEMERIS_TYPE = 0
CLASSIFICATION_TYPE = U
NORAD_CAT_ID   = 67360
ELEMENT_SET_NO = 999
REV_AT_EPOCH   = 342
BSTAR          = -.86907812E-3
MEAN_MOTION_DOT = -.132245E-2
MEAN_MOTION_DDOT = 0

CCSDS_OMM_VERS = 2.0
CREATION_DATE  = 
ORIGINATOR     = 

OBJECT_NAME    = STARLINK-35306
OBJECT_ID      = 2026-003AD
CENTER_NAME    = EARTH
REF_FRAME      = TEME
TIME_SYSTEM    = UTC
MEAN_ELEMENT_THEORY = SGP/SGP4

EPOCH          = 2026-01-23T14:00:01.999872
MEAN_MOTION    = 15.75096163
ECCENTRICITY   = .00014599
INCLINATION    = 42.9990
RA_OF_ASC_NODE = 126.5378
ARG_OF_PERICENTER = 255.7133
MEAN_ANOMALY   = 18.5129

EPHEMERIS_TYPE = 0
CLASSIFICATION_TYPE = U
NORAD_CAT_ID   = 67361
ELEMENT_SET_NO = 999
REV_AT_EPOCH   = 336
BSTAR          = -.94669928E-3
MEAN_MOTION_DOT = -.143806E-2
MEAN_MOTION_DDOT = 0

CCSDS_OMM_VERS = 2.0
CREATION_DATE  = 
ORIGINATOR     = 

OBJECT_NAME    = STARLINK-36428
OBJECT_ID      = 2026-003AE
CENTER_NAME    = EARTH
REF_FRAME      = TEME
TIME_SYSTEM    = UTC
MEAN_ELEMENT_THEORY = SGP/SGP4

EPOCH          = 2026-01-23T14:00:01.999872
MEAN_MOTION    = 15.75116187
ECCENTRICITY   = .00014327
INCLINATION    = 42.9991
RA_OF_ASC_NODE = 126.5327
ARG_OF_PERICENTER = 263.8427
MEAN_ANOMALY   = 12.3011

EPHEMERIS_TYPE = 0
CLASSIFICATION_TYPE = U
NORAD_CAT_ID   = 67362
ELEMENT_SET_NO = 999
REV_AT_EPOCH   = 342
BSTAR          = -.11667128E-2
MEAN_MOTION_DOT = -.17659E-2
MEAN_MOTION_DDOT = 0

CCSDS_OMM_VERS = 2.0
CREATION_DATE  = 
ORIGINATOR     = 

OBJECT_NAME    = TWILIGHT A
OBJECT_ID      = 2026-004A
CENTER_NAME    = EARTH
REF_FRAME      = TEME
TIME_SYSTEM    = UTC
MEAN_ELEMENT_THEORY = SGP/SGP4

EPOCH          = 2026-01-23T12:35:55.843296
MEAN_MOTION    = 14.86908726
ECCENTRICITY   = .00074037
INCLINATION    = 97.7992
RA_OF_ASC_NODE = 24.4775
ARG_OF_PERICENTER = 253.8465
MEAN_ANOMALY   = 106.1936

EPHEMERIS_TYPE = 0
CLASSIFICATION_TYPE = U
NORAD_CAT_ID   = 67363
ELEMENT_SET_NO = 999
REV_AT_EPOCH   = 177
BSTAR          = .55136655E-3
MEAN_MOTION_DOT = .4876E-4
MEAN_MOTION_DDOT = 0

CCSDS_OMM_VERS = 2.0
CREATION_DATE  = 
ORIGINATOR     = 

OBJECT_NAME    = TWILIGHT B
OBJECT_ID      = 2026-004B
CENTER_NAME    = EARTH
REF_FRAME      = TEME
TIME_SYSTEM    = UTC
MEAN_ELEMENT_THEORY = SGP/SGP4

EPOCH          = 2026-01-23T09:21:17.945856
MEAN_MOTION    = 14.87020768
ECCENTRICITY   = .00072736
INCLINATION    = 97.7995
RA_OF_ASC_NODE = 24.3459
ARG_OF_PERICENTER = 249.5190
MEAN_ANOMALY   = 110.5245

EPHEMERIS_TYPE = 0
CLASSIFICATION_TYPE = U
NORAD_CAT_ID   = 67364
ELEMENT_SET_NO = 999
REV_AT_EPOCH   = 176
BSTAR          = .75872651E-3
MEAN_MOTION_DOT = .6751E-4
MEAN_MOTION_DDOT = 0

CCSDS_OMM_VERS = 2.0
CREATION_DATE  = 
ORIGINATOR     = 

OBJECT_NAME    = TWILIGHT C
OBJECT_ID      = 2026-004C
CENTER_NAME    = EARTH
REF_FRAME      = TEME
TIME_SYSTEM    = UTC
MEAN_ELEMENT_THEORY = SGP/SGP4

EPOCH          = 2026-01-23T10:57:55.076544
MEAN_MOTION    = 14.87036827
ECCENTRICITY   = .00069308
INCLINATION    = 97.7970
RA_OF_ASC_NODE = 24.4122
ARG_OF_PERICENTER = 255.5232
MEAN_ANOMALY   = 104.5216

EPHEMERIS_TYPE = 0
CLASSIFICATION_TYPE = U
NORAD_CAT_ID   = 67365
ELEMENT_SET_NO = 999
REV_AT_EPOCH   = 177
BSTAR          = .7373756E-3
MEAN_MOTION_DOT = .6561E-4
MEAN_MOTION_DDOT = 0

CCSDS_OMM_VERS = 2.0
CREATION_DATE  = 
ORIGINATOR     = 

OBJECT_NAME    = TWILIGHT D
OBJECT_ID      = 2026-004D
CENTER_NAME    = EARTH
REF_FRAME      = TEME
TIME_SYSTEM    = UTC
MEAN_ELEMENT_THEORY = SGP/SGP4

EPOCH          = 2026-01-23T10:57:28.939680
MEAN_MOTION    = 14.87054191
ECCENTRICITY   = .00073201
INCLINATION    = 97.8027
RA_OF_ASC_NODE = 24.4129
ARG_OF_PERICENTER = 241.6424
MEAN_ANOMALY   = 118.4054

EPHEMERIS_TYPE = 0
CLASSIFICATION_TYPE = U
NORAD_CAT_ID   = 67366
ELEMENT_SET_NO = 999
REV_AT_EPOCH   = 177
BSTAR          = .61911507E-3
MEAN_MOTION_DOT = .5502E-4
MEAN_MOTION_DDOT = 0

CCSDS_OMM_VERS = 2.0
CREATION_DATE  = 
ORIGINATOR     = 

OBJECT_NAME    = TWILIGHT E
OBJECT_ID      = 2026-004E
CENTER_NAME    = EARTH
REF_FRAME      = TEME
TIME_SYSTEM    = UTC
MEAN_ELEMENT_THEORY = SGP/SGP4

EPOCH          = 2026-01-23T10:56:42.013248
MEAN_MOTION    = 14.87148981
ECCENTRICITY   = .0006425
INCLINATION    = 97.7958
RA_OF_ASC_NODE = 24.4132
ARG_OF_PERICENTER = 258.2083
MEAN_ANOMALY   = 101.8413

EPHEMERIS_TYPE = 0
CLASSIFICATION_TYPE = U
NORAD_CAT_ID   = 67367
ELEMENT_SET_NO = 999
REV_AT_EPOCH   = 177
BSTAR          = .87598522E-3
MEAN_MOTION_DOT = .7828E-4
MEAN_MOTION_DDOT = 0

