STARLINK-36429          
1 67356U 26003Y   26023.58335648 -.00152817  00000+0 -10065-2 0  9992
2 67356  42.9992 126.5685 0001308 261.4910   1.2100 15.75114521  3416
STARLINK-36456          
1 67357U 26003Z   26023.58335648 -.00096993  00000+0 -63407-3 0  9994
2 67357  42.9991 126.5584 0001406 273.0780 353.4573 15.75093441  3421
STARLINK-36466          
1 67358U 26003AA  26023.58335648  .00198770  00000+0  12717-2 0  9996
2 67358  42.9994 126.5528 0001401 272.1424 356.3941 15.74951001  3428
STARLINK-36499          
1 67359U 26003AB  26023.58335648 -.00118314  00000+0 -77600-3 0  9998
2 67359  42.9990 126.5483 0001514 264.3566   6.0166 15.75095722  3428
STARLINK-36469          
1 67360U 26003AC  26023.58335648 -.00132245  00000+0 -86908-3 0  9990
2 67360  42.9990 126.5439 0001377 255.2111  17.0876 15.75098548  3422
STARLINK-35306          
1 67361U 26003AD  26023.58335648 -.00143806  00000+0 -94670-3 0  9991
2 67361  42.9990 126.5378 0001459 255.7133  18.5129 15.75096163  3366
STARLINK-36428          
1 67362U 26003AE  26023.58335648 -.00176590  00000+0 -11667-2 0  9992
2 67362  42.9991 126.5327 0001432 263.8427  12.3011 15.75116187  3427
TWILIGHT A              
1 67363U 26004A   26023.52495189  .00004876  00000+0  55137-3 0  9991
2 67363  97.7992  24.4775 0007403 253.8465 106.1936 14.86908726  1778
TWILIGHT B              
1 67364U 26004B   26023.38979104  .00006751  00000+0  75873-3 0  9993
2 67364  97.7995  24.3459 0007273 249.5190 110.5245 14.87020768  1765
TWILIGHT C              
1 67365U 26004C   26023.45688746  .00006561  00000+0  73738-3 0  9998
2 67365  97.7970  24.4122 0006930 255.5232 104.5216 14.87036827  1775
TWILIGHT D              
1 67366U 26004D   26023.45658495  .00005502  00000+0  61912-3 0  9992
2 67366  97.8027  24.4129 0007320 241.6424 118.4054 14.87054191  1778
TWILIGHT E              
1 67367U 26004E   26023.45604182  .00007828  00000+0  87599-3 0  9999
2 67367  97.7958  24.4132 0006425 258.2083 101.8413 14.87148981  1771
